[
  {
    "OBJECT_NAME": "STARLINK-34116",
    "OBJECT_ID": "25095A",
    "EPOCH": "2025-11-10T12:58:40.983168",
    "MEAN_MOTION": 15.27598463,
    "ECCENTRICITY": 0.0001979,
    "INCLINATION": 43.0033,
    "RA_OF_ASC_NODE": 129.2786,
    "ARG_OF_PERICENTER": 277.0533,
    "MEAN_ANOMALY": 83.0093,
    "EPHEMERIS_TYPE": 0,
    "CLASSIFICATION_TYPE": "U",
    "NORAD_CAT_ID": 63890,
    "ELEMENT_SET_NO": 999,
    "REV_AT_EPOCH": 2956,
    "BSTAR": 0.0013884,
    "MEAN_MOTION_DOT": 0.00038165,
    "MEAN_MOTION_DDOT": 0.0,
    "TLE_LINE1": "1 63890U 25095A   25314.54075212  .00038165  00000+0  13884-2 0  9996",
    "TLE_LINE2": "2 63890  43.0033 129.2786 0001979 277.0533  83.0093 15.27598463 29564",
    "COMMENT": "Grouped by shell and plane from TLE"
  },
  {
    "OBJECT_NAME": "STARLINK-34123",
    "OBJECT_ID": "25095B",
    "EPOCH": "2025-11-11T05:00:35.772768",
    "MEAN_MOTION": 15.27596002,
    "ECCENTRICITY": 0.0001987,
    "INCLINATION": 43.0015,
    "RA_OF_ASC_NODE": 125.6854,
    "ARG_OF_PERICENTER": 280.2108,
    "MEAN_ANOMALY": 79.8519,
    "EPHEMERIS_TYPE": 0,
    "CLASSIFICATION_TYPE": "U",
    "NORAD_CAT_ID": 63891,
    "ELEMENT_SET_NO": 999,
    "REV_AT_EPOCH": 2966,
    "BSTAR": 0.00073797,
    "MEAN_MOTION_DOT": 0.00020111,
    "MEAN_MOTION_DDOT": 0.0,
    "TLE_LINE1": "1 63891U 25095B   25315.20874737  .00020111  00000+0  73797-3 0  9992",
    "TLE_LINE2": "2 63891  43.0015 125.6854 0001987 280.2108  79.8519 15.27596002 29668",
    "COMMENT": "Grouped by shell and plane from TLE"
  },
  {
    "OBJECT_NAME": "STARLINK-34128",
    "OBJECT_ID": "25095C",
    "EPOCH": "2025-11-11T04:18:03.193632",
    "MEAN_MOTION": 15.2759167,
    "ECCENTRICITY": 6.57e-05,
    "INCLINATION": 42.9998,
    "RA_OF_ASC_NODE": 125.4614,
    "ARG_OF_PERICENTER": 273.9394,
    "MEAN_ANOMALY": 86.1383,
    "EPHEMERIS_TYPE": 0,
    "CLASSIFICATION_TYPE": "U",
    "NORAD_CAT_ID": 63892,
    "ELEMENT_SET_NO": 999,
    "REV_AT_EPOCH": 2966,
    "BSTAR": 0.00094336,
    "MEAN_MOTION_DOT": 0.00025797,
    "MEAN_MOTION_DDOT": 0.0,
    "TLE_LINE1": "1 63892U 25095C   25315.17920363  .00025797  00000+0  94336-3 0  9993",
    "TLE_LINE2": "2 63892  42.9998 125.4614 0000657 273.9394  86.1383 15.27591670 29664",
    "COMMENT": "Grouped by shell and plane from TLE"
  },
  {
    "OBJECT_NAME": "STARLINK-33972",
    "OBJECT_ID": "25095D",
    "EPOCH": "2025-11-11T04:29:08.734560",
    "MEAN_MOTION": 15.27581165,
    "ECCENTRICITY": 0.0001383,
    "INCLINATION": 42.9998,
    "RA_OF_ASC_NODE": 125.524,
    "ARG_OF_PERICENTER": 283.3572,
    "MEAN_ANOMALY": 76.7126,
    "EPHEMERIS_TYPE": 0,
    "CLASSIFICATION_TYPE": "U",
    "NORAD_CAT_ID": 63893,
    "ELEMENT_SET_NO": 999,
    "REV_AT_EPOCH": 2966,
    "BSTAR": 0.0014338,
    "MEAN_MOTION_DOT": 0.00039406,
    "MEAN_MOTION_DDOT": 0.0,
    "TLE_LINE1": "1 63893U 25095D   25315.18690665  .00039406  00000+0  14338-2 0  9999",
    "TLE_LINE2": "2 63893  42.9998 125.5240 0001383 283.3572  76.7126 15.27581165 29669",
    "COMMENT": "Grouped by shell and plane from TLE"
  },
  {
    "OBJECT_NAME": "STARLINK-33973",
    "OBJECT_ID": "25095E",
    "EPOCH": "2025-11-10T21:20:42.714528",
    "MEAN_MOTION": 15.27617808,
    "ECCENTRICITY": 0.0001989,
    "INCLINATION": 43.0016,
    "RA_OF_ASC_NODE": 126.7213,
    "ARG_OF_PERICENTER": 279.0384,
    "MEAN_ANOMALY": 81.0243,
    "EPHEMERIS_TYPE": 0,
    "CLASSIFICATION_TYPE": "U",
    "NORAD_CAT_ID": 63894,
    "ELEMENT_SET_NO": 999,
    "REV_AT_EPOCH": 2962,
    "BSTAR": 0.0011152,
    "MEAN_MOTION_DOT": 0.00030588,
    "MEAN_MOTION_DDOT": 0.0,
    "TLE_LINE1": "1 63894U 25095E   25314.88938327  .00030588  00000+0  11152-2 0  9999",
    "TLE_LINE2": "2 63894  43.0016 126.7213 0001989 279.0384  81.0243 15.27617808 29620",
    "COMMENT": "Grouped by shell and plane from TLE"
  },
  {
    "OBJECT_NAME": "STARLINK-34119",
    "OBJECT_ID": "25095F",
    "EPOCH": "2025-11-11T04:49:29.289216",
    "MEAN_MOTION": 15.27626597,
    "ECCENTRICITY": 0.0003725,
    "INCLINATION": 43.0087,
    "RA_OF_ASC_NODE": 125.631,
    "ARG_OF_PERICENTER": 269.5204,
    "MEAN_ANOMALY": 90.5221,
    "EPHEMERIS_TYPE": 0,
    "CLASSIFICATION_TYPE": "U",
    "NORAD_CAT_ID": 63895,
    "ELEMENT_SET_NO": 999,
    "REV_AT_EPOCH": 2966,
    "BSTAR": 0.0011796,
    "MEAN_MOTION_DOT": 0.00032391,
    "MEAN_MOTION_DDOT": 0.0,
    "TLE_LINE1": "1 63895U 25095F   25315.20103344  .00032391  00000+0  11796-2 0  9998",
    "TLE_LINE2": "2 63895  43.0087 125.6310 0003725 269.5204  90.5221 15.27626597 29660",
    "COMMENT": "Grouped by shell and plane from TLE"
  },
  {
    "OBJECT_NAME": "STARLINK-34143",
    "OBJECT_ID": "25095G",
    "EPOCH": "2025-11-10T20:21:42.277536",
    "MEAN_MOTION": 15.27664047,
    "ECCENTRICITY": 0.0001542,
    "INCLINATION": 42.9998,
    "RA_OF_ASC_NODE": 127.2766,
    "ARG_OF_PERICENTER": 260.4093,
    "MEAN_ANOMALY": 99.6584,
    "EPHEMERIS_TYPE": 0,
    "CLASSIFICATION_TYPE": "U",
    "NORAD_CAT_ID": 63896,
    "ELEMENT_SET_NO": 999,
    "REV_AT_EPOCH": 2961,
    "BSTAR": 0.0015762999999999999,
    "MEAN_MOTION_DOT": 0.00043481,
    "MEAN_MOTION_DDOT": 0.0,
    "TLE_LINE1": "1 63896U 25095G   25314.84840599  .00043481  00000+0  15763-2 0  9998",
    "TLE_LINE2": "2 63896  42.9998 127.2766 0001542 260.4093  99.6584 15.27664047 29613",
    "COMMENT": "Grouped by shell and plane from TLE"
  },
  {
    "OBJECT_NAME": "STARLINK-33957",
    "OBJECT_ID": "25095H",
    "EPOCH": "2025-11-11T04:55:01.600896",
    "MEAN_MOTION": 15.27580772,
    "ECCENTRICITY": 0.0001242,
    "INCLINATION": 43.0022,
    "RA_OF_ASC_NODE": 125.6578,
    "ARG_OF_PERICENTER": 271.2545,
    "MEAN_ANOMALY": 88.8164,
    "EPHEMERIS_TYPE": 0,
    "CLASSIFICATION_TYPE": "U",
    "NORAD_CAT_ID": 63897,
    "ELEMENT_SET_NO": 999,
    "REV_AT_EPOCH": 2965,
    "BSTAR": 1.8248000000000002e-05,
    "MEAN_MOTION_DOT": 2.4e-06,
    "MEAN_MOTION_DDOT": 0.0,
    "TLE_LINE1": "1 63897U 25095H   25315.20487964  .00000240  00000+0  18248-4 0  9992",
    "TLE_LINE2": "2 63897  43.0022 125.6578 0001242 271.2545  88.8164 15.27580772 29656",
    "COMMENT": "Grouped by shell and plane from TLE"
  },
  {
    "OBJECT_NAME": "STARLINK-34120",
    "OBJECT_ID": "25095J",
    "EPOCH": "2025-11-10T21:15:09.370368",
    "MEAN_MOTION": 15.27607102,
    "ECCENTRICITY": 0.0001965,
    "INCLINATION": 43.0019,
    "RA_OF_ASC_NODE": 126.6921,
    "ARG_OF_PERICENTER": 278.8189,
    "MEAN_ANOMALY": 81.2441,
    "EPHEMERIS_TYPE": 0,
    "CLASSIFICATION_TYPE": "U",
    "NORAD_CAT_ID": 63898,
    "ELEMENT_SET_NO": 999,
    "REV_AT_EPOCH": 2962,
    "BSTAR": 0.0015554000000000002,
    "MEAN_MOTION_DOT": 0.00042823,
    "MEAN_MOTION_DDOT": 0.0,
    "TLE_LINE1": "1 63898U 25095J   25314.88552512  .00042823  00000+0  15554-2 0  9996",
    "TLE_LINE2": "2 63898  43.0019 126.6921 0001965 278.8189  81.2441 15.27607102 29624",
    "COMMENT": "Grouped by shell and plane from TLE"
  },
  {
    "OBJECT_NAME": "STARLINK-34134",
    "OBJECT_ID": "25095K",
    "EPOCH": "2025-11-11T04:34:41.394432",
    "MEAN_MOTION": 15.2761845,
    "ECCENTRICITY": 0.0001215,
    "INCLINATION": 43.0018,
    "RA_OF_ASC_NODE": 125.5519,
    "ARG_OF_PERICENTER": 272.1484,
    "MEAN_ANOMALY": 87.9228,
    "EPHEMERIS_TYPE": 0,
    "CLASSIFICATION_TYPE": "U",
    "NORAD_CAT_ID": 63899,
    "ELEMENT_SET_NO": 999,
    "REV_AT_EPOCH": 2966,
    "BSTAR": 0.0017245,
    "MEAN_MOTION_DOT": 0.00047556,
    "MEAN_MOTION_DDOT": 0.0,
    "TLE_LINE1": "1 63899U 25095K   25315.19075688  .00047556  00000+0  17245-2 0  9993",
    "TLE_LINE2": "2 63899  43.0018 125.5519 0001215 272.1484  87.9228 15.27618450 29666",
    "COMMENT": "Grouped by shell and plane from TLE"
  },
  {
    "OBJECT_NAME": "STARLINK-34118",
    "OBJECT_ID": "25095L",
    "EPOCH": "2025-11-10T20:53:09.523104",
    "MEAN_MOTION": 15.2761249,
    "ECCENTRICITY": 0.0001995,
    "INCLINATION": 43.0048,
    "RA_OF_ASC_NODE": 127.449,
    "ARG_OF_PERICENTER": 277.7131,
    "MEAN_ANOMALY": 82.3495,
    "EPHEMERIS_TYPE": 0,
    "CLASSIFICATION_TYPE": "U",
    "NORAD_CAT_ID": 63900,
    "ELEMENT_SET_NO": 999,
    "REV_AT_EPOCH": 2961,
    "BSTAR": 0.0011125,
    "MEAN_MOTION_DOT": 0.00030508,
    "MEAN_MOTION_DDOT": 0.0,
    "TLE_LINE1": "1 63900U 25095L   25314.87024911  .00030508  00000+0  11125-2 0  9993",
    "TLE_LINE2": "2 63900  43.0048 127.4490 0001995 277.7131  82.3495 15.27612490 29614",
    "COMMENT": "Grouped by shell and plane from TLE"
  },
  {
    "OBJECT_NAME": "STARLINK-34125",
    "OBJECT_ID": "25095M",
    "EPOCH": "2025-11-10T18:58:39.519552",
    "MEAN_MOTION": 15.27595602,
    "ECCENTRICITY": 0.000247,
    "INCLINATION": 43.0004,
    "RA_OF_ASC_NODE": 127.7064,
    "ARG_OF_PERICENTER": 278.0445,
    "MEAN_ANOMALY": 82.0127,
    "EPHEMERIS_TYPE": 0,
    "CLASSIFICATION_TYPE": "U",
    "NORAD_CAT_ID": 63901,
    "ELEMENT_SET_NO": 999,
    "REV_AT_EPOCH": 2959,
    "BSTAR": 0.0018109,
    "MEAN_MOTION_DOT": 0.00049934,
    "MEAN_MOTION_DDOT": 0.0,
    "TLE_LINE1": "1 63901U 25095M   25314.79073518  .00049934  00000+0  18109-2 0  9994",
    "TLE_LINE2": "2 63901  43.0004 127.7064 0002470 278.0445  82.0127 15.27595602 29599",
    "COMMENT": "Grouped by shell and plane from TLE"
  },
  {
    "OBJECT_NAME": "STARLINK-33955",
    "OBJECT_ID": "25095N",
    "EPOCH": "2025-11-10T21:24:23.054400",
    "MEAN_MOTION": 15.27636684,
    "ECCENTRICITY": 0.0001785,
    "INCLINATION": 43.0011,
    "RA_OF_ASC_NODE": 126.7383,
    "ARG_OF_PERICENTER": 277.68,
    "MEAN_ANOMALY": 82.3849,
    "EPHEMERIS_TYPE": 0,
    "CLASSIFICATION_TYPE": "U",
    "NORAD_CAT_ID": 63902,
    "ELEMENT_SET_NO": 999,
    "REV_AT_EPOCH": 2961,
    "BSTAR": 0.0015712,
    "MEAN_MOTION_DOT": 0.00043302,
    "MEAN_MOTION_DDOT": 0.0,
    "TLE_LINE1": "1 63902U 25095N   25314.89193350  .00043302  00000+0  15712-2 0  9993",
    "TLE_LINE2": "2 63902  43.0011 126.7383 0001785 277.6800  82.3849 15.27636684 29612",
    "COMMENT": "Grouped by shell and plane from TLE"
  }
]